start=new Date('2022-08-20T00:00:00.000Z').valueOf();
sats=[{"ECCENTRICITY":"0.00012990","COUNTRY_CODE":"US","TIME_SYSTEM":"UTC","TLE_LINE2":"2 44969  53.0575  13.9385 0001299 124.0273 236.0840 15.06400481144751","MEAN_ELEMENT_THEORY":"SGP4","RCS_SIZE":"LARGE","NORAD_CAT_ID":"44969","BSTAR":"0.00003932900000","TLE_LINE1":"1 44969U 20001BH  22231.60926504  .00000304  00000-0  39329-4 0  9994","INCLINATION":"53.0575","RA_OF_ASC_NODE":"13.9385","EPHEMERIS_TYPE":"0","OBJECT_ID":"2020-001BH","OBJECT_TYPE":"PAYLOAD","PERIOD":"95.592","DECAY_DATE":null,"APOAPSIS":"548.112","FILE":"3540705","SITE":"AFETR","EPOCH":"2022-08-19T14:37:20.499456","ARG_OF_PERICENTER":"124.0273","PERIAPSIS":"546.312","OBJECT_NAME":"STARLINK-1092","REV_AT_EPOCH":"14475","LAUNCH_DATE":"2020-01-07","MEAN_ANOMALY":"236.0840","GP_ID":"210544000","ELEMENT_SET_NO":"999","REF_FRAME":"TEME","MEAN_MOTION":"15.06400481","CENTER_NAME":"EARTH","CLASSIFICATION_TYPE":"U","MEAN_MOTION_DOT":"0.00000304","MEAN_MOTION_DDOT":"0.0000000000000","SEMIMAJOR_AXIS":"6925.347"},{"MEAN_MOTION_DOT":"0.00008151","CENTER_NAME":"EARTH","CLASSIFICATION_TYPE":"U","MEAN_MOTION_DDOT":"0.0000000000000","SEMIMAJOR_AXIS":"6925.307","ARG_OF_PERICENTER":"110.0859","PERIAPSIS":"546.286","SITE":"AFETR","FILE":"3540705","EPOCH":"2022-08-19T17:16:36.547680","ELEMENT_SET_NO":"999","REF_FRAME":"TEME","MEAN_MOTION":"15.06413707","OBJECT_NAME":"STARLINK-1093","REV_AT_EPOCH":"14476","LAUNCH_DATE":"2020-01-07","MEAN_ANOMALY":"250.0267","GP_ID":"210543751","RA_OF_ASC_NODE":"13.4233","EPHEMERIS_TYPE":"0","OBJECT_ID":"2020-001BJ","INCLINATION":"53.0547","PERIOD":"95.591","DECAY_DATE":null,"APOAPSIS":"548.057","OBJECT_TYPE":"PAYLOAD","ECCENTRICITY":"0.00012780","COUNTRY_CODE":"US","RCS_SIZE":"LARGE","NORAD_CAT_ID":"44970","BSTAR":"0.00056527000000","TLE_LINE1":"1 44970U 20001BJ  22231.71986745  .00008151  00000-0  56527-3 0  9997","TIME_SYSTEM":"UTC","TLE_LINE2":"2 44970  53.0547  13.4233 0001278 110.0859 250.0267 15.06413707144766","MEAN_ELEMENT_THEORY":"SGP4"},{"SEMIMAJOR_AXIS":"6925.321","MEAN_MOTION_DDOT":"0.0000000000000","CLASSIFICATION_TYPE":"U","CENTER_NAME":"EARTH","MEAN_MOTION_DOT":"0.00002884","GP_ID":"210451842","MEAN_ANOMALY":"257.0725","LAUNCH_DATE":"2020-01-07","REV_AT_EPOCH":"14459","OBJECT_NAME":"STARLINK-1107","MEAN_MOTION":"15.06408992","ELEMENT_SET_NO":"999","REF_FRAME":"TEME","EPOCH":"2022-08-18T11:54:24.545952","FILE":"3539533","SITE":"AFETR","PERIAPSIS":"546.183","ARG_OF_PERICENTER":"103.0426","OBJECT_TYPE":"PAYLOAD","APOAPSIS":"548.189","DECAY_DATE":null,"PERIOD":"95.592","INCLINATION":"53.0545","OBJECT_ID":"2020-001BL","RA_OF_ASC_NODE":"18.9391","EPHEMERIS_TYPE":"0","TLE_LINE2":"2 44972  53.0545  18.9391 0001449 103.0426 257.0725 15.06408992144590","MEAN_ELEMENT_THEORY":"SGP4","TIME_SYSTEM":"UTC","TLE_LINE1":"1 44972U 20001BL  22230.49611743  .00002884  00000-0  21241-3 0  9998","BSTAR":"0.00021241000000","RCS_SIZE":"LARGE","NORAD_CAT_ID":"44972","COUNTRY_CODE":"US","ECCENTRICITY":"0.00014490"},{"RCS_SIZE":"LARGE","NORAD_CAT_ID":"44973","TLE_LINE1":"1 44973U 20001BM  22231.86729303 -.00000540  00000-0 -17346-4 0  9994","BSTAR":"-0.00001734600000","TIME_SYSTEM":"UTC","MEAN_ELEMENT_THEORY":"SGP4","TLE_LINE2":"2 44973  53.0548  12.7710 0001491  75.8485 284.2670 15.06397819144797","ECCENTRICITY":"0.00014910","COUNTRY_CODE":"US","PERIOD":"95.592","DECAY_DATE":null,"APOAPSIS":"548.253","OBJECT_TYPE":"PAYLOAD","RA_OF_ASC_NODE":"12.7710","EPHEMERIS_TYPE":"0","OBJECT_ID":"2020-001BM","INCLINATION":"53.0548","REF_FRAME":"TEME","ELEMENT_SET_NO":"999","MEAN_MOTION":"15.06397819","REV_AT_EPOCH":"14479","OBJECT_NAME":"STARLINK-1115","LAUNCH_DATE":"2020-01-07","MEAN_ANOMALY":"284.2670","GP_ID":"210545251","ARG_OF_PERICENTER":"75.8485","PERIAPSIS":"546.188","FILE":"3540705","SITE":"AFETR","EPOCH":"2022-08-19T20:48:54.117792","MEAN_MOTION_DDOT":"0.0000000000000","SEMIMAJOR_AXIS":"6925.355","MEAN_MOTION_DOT":"-0.00000540","CENTER_NAME":"EARTH","CLASSIFICATION_TYPE":"U"},{"MEAN_MOTION_DOT":"0.00001277","CENTER_NAME":"EARTH","CLASSIFICATION_TYPE":"U","MEAN_MOTION_DDOT":"0.0000000000000","SEMIMAJOR_AXIS":"6925.334","ARG_OF_PERICENTER":"91.9585","PERIAPSIS":"546.220","FILE":"3540406","SITE":"AFETR","EPOCH":"2022-08-19T10:38:29.302080","REF_FRAME":"TEME","ELEMENT_SET_NO":"999","MEAN_MOTION":"15.06404625","REV_AT_EPOCH":"14106","OBJECT_NAME":"STARLINK-1132","LAUNCH_DATE":"2020-01-29","GP_ID":"210512953","MEAN_ANOMALY":"268.1566","RA_OF_ASC_NODE":"334.6739","EPHEMERIS_TYPE":"0","OBJECT_ID":"2020-006A","INCLINATION":"53.0545","PERIOD":"95.592","DECAY_DATE":null,"APOAPSIS":"548.179","OBJECT_TYPE":"PAYLOAD","ECCENTRICITY":"0.00014140","COUNTRY_CODE":"US","RCS_SIZE":"LARGE","NORAD_CAT_ID":"45044","BSTAR":"0.00010459000000","TLE_LINE1":"1 45044U 20006A   22231.44339470  .00001277  00000-0  10459-3 0  9998","TIME_SYSTEM":"UTC","TLE_LINE2":"2 45044  53.0545 334.6739 0001414  91.9585 268.1566 15.06404625141062","MEAN_ELEMENT_THEORY":"SGP4"},{"SITE":"AFETR","FILE":"3540705","EPOCH":"2022-08-19T19:51:47.455776","ARG_OF_PERICENTER":"59.8269","PERIAPSIS":"546.469","LAUNCH_DATE":"2020-01-29","REV_AT_EPOCH":"14084","OBJECT_NAME":"STARLINK-1120","MEAN_ANOMALY":"300.2830","GP_ID":"210544758","ELEMENT_SET_NO":"999","REF_FRAME":"TEME","MEAN_MOTION":"15.06392647","CLASSIFICATION_TYPE":"U","CENTER_NAME":"EARTH","MEAN_MOTION_DOT":"-0.00003020","MEAN_MOTION_DDOT":"0.0000000000000","SEMIMAJOR_AXIS":"6925.371","COUNTRY_CODE":"US","ECCENTRICITY":"0.00011070","TLE_LINE2":"2 45045  53.0559 352.9350 0001107  59.8269 300.2830 15.06392647140848","MEAN_ELEMENT_THEORY":"SGP4","TIME_SYSTEM":"UTC","RCS_SIZE":"LARGE","NORAD_CAT_ID":"45045","TLE_LINE1":"1 45045U 20006B   22231.82763259 -.00003020  00000-0 -18396-3 0  9995","BSTAR":"-0.00018396000000","INCLINATION":"53.0559","EPHEMERIS_TYPE":"0","RA_OF_ASC_NODE":"352.9350","OBJECT_ID":"2020-006B","OBJECT_TYPE":"PAYLOAD","PERIOD":"95.593","APOAPSIS":"548.003","DECAY_DATE":null},{"LAUNCH_DATE":"2020-01-29","REV_AT_EPOCH":"14102","OBJECT_NAME":"STARLINK-1129","MEAN_ANOMALY":"281.2700","GP_ID":"210544007","ELEMENT_SET_NO":"999","REF_FRAME":"TEME","MEAN_MOTION":"15.17045444","SITE":"AFETR","FILE":"3540705","EPOCH":"2022-08-19T18:47:24.861696","ARG_OF_PERICENTER":"78.8432","PERIAPSIS":"513.921","MEAN_MOTION_DDOT":"0.0000000000000","SEMIMAJOR_AXIS":"6892.913","CLASSIFICATION_TYPE":"U","CENTER_NAME":"EARTH","MEAN_MOTION_DOT":"0.00020280","MEAN_ELEMENT_THEORY":"SGP4","TLE_LINE2":"2 45046  52.9967 336.5092 0001243  78.8432 281.2700 15.17045444141022","TIME_SYSTEM":"UTC","NORAD_CAT_ID":"45046","RCS_SIZE":"LARGE","BSTAR":"0.00102540000000","TLE_LINE1":"1 45046U 20006C   22231.78292664  .00020280  00000-0  10254-2 0  9997","COUNTRY_CODE":"US","ECCENTRICITY":"0.00012430","OBJECT_TYPE":"PAYLOAD","PERIOD":"94.921","APOAPSIS":"515.635","DECAY_DATE":null,"INCLINATION":"52.9967","RA_OF_ASC_NODE":"336.5092","EPHEMERIS_TYPE":"0","OBJECT_ID":"2020-006C"},{"PERIOD":"95.591","DECAY_DATE":null,"APOAPSIS":"548.058","OBJECT_TYPE":"PAYLOAD","RA_OF_ASC_NODE":"354.4242","EPHEMERIS_TYPE":"0","OBJECT_ID":"2020-006D","INCLINATION":"53.0562","RCS_SIZE":"LARGE","NORAD_CAT_ID":"45047","BSTAR":"0.00018448000000","TLE_LINE1":"1 45047U 20006D   22231.50052550  .00002468  00000-0  18448-3 0  9998","TIME_SYSTEM":"UTC","TLE_LINE2":"2 45047  53.0562 354.4242 0001267  87.7564 272.3570 15.06410920140795","MEAN_ELEMENT_THEORY":"SGP4","ECCENTRICITY":"0.00012670","COUNTRY_CODE":"US","MEAN_MOTION_DDOT":"0.0000000000000","SEMIMAJOR_AXIS":"6925.315","MEAN_MOTION_DOT":"0.00002468","CENTER_NAME":"EARTH","CLASSIFICATION_TYPE":"U","ELEMENT_SET_NO":"999","REF_FRAME":"TEME","MEAN_MOTION":"15.06410920","REV_AT_EPOCH":"14079","OBJECT_NAME":"STARLINK-1131","LAUNCH_DATE":"2020-01-29","GP_ID":"210513203","MEAN_ANOMALY":"272.3570","ARG_OF_PERICENTER":"87.7564","PERIAPSIS":"546.303","FILE":"3540406","SITE":"AFETR","EPOCH":"2022-08-19T12:00:45.403200"},{"MEAN_MOTION_DDOT":"0.0000000000000","SEMIMAJOR_AXIS":"6925.340","MEAN_MOTION_DOT":"0.00000934","CLASSIFICATION_TYPE":"U","CENTER_NAME":"EARTH","ELEMENT_SET_NO":"999","REF_FRAME":"TEME","MEAN_MOTION":"15.06402867","LAUNCH_DATE":"2020-01-29","REV_AT_EPOCH":"14079","OBJECT_NAME":"STARLINK-1134","GP_ID":"210513453","MEAN_ANOMALY":"222.4198","ARG_OF_PERICENTER":"137.6898","PERIAPSIS":"546.246","SITE":"AFETR","FILE":"3540406","EPOCH":"2022-08-19T12:11:22.410528","PERIOD":"95.592","APOAPSIS":"548.163","DECAY_DATE":null,"OBJECT_TYPE":"PAYLOAD","RA_OF_ASC_NODE":"354.3694","EPHEMERIS_TYPE":"0","OBJECT_ID":"2020-006E","INCLINATION":"53.0557","RCS_SIZE":"LARGE","NORAD_CAT_ID":"45048","TLE_LINE1":"1 45048U 20006E   22231.50789827  .00000934  00000-0  81553-4 0  9997","BSTAR":"0.00008155300000","MEAN_ELEMENT_THEORY":"SGP4","TLE_LINE2":"2 45048  53.0557 354.3694 0001384 137.6898 222.4198 15.06402867140798","TIME_SYSTEM":"UTC","COUNTRY_CODE":"US","ECCENTRICITY":"0.00013840"},{"BSTAR":"0.00090469000000","TLE_LINE1":"1 45049U 20006F   22231.46959094  .00014809  00000-0  90469-3 0  9999","RCS_SIZE":"LARGE","NORAD_CAT_ID":"45049","TLE_LINE2":"2 45049  53.0560 351.3581 0000954 111.6976 248.4117 15.10496568140836","MEAN_ELEMENT_THEORY":"SGP4","TIME_SYSTEM":"UTC","COUNTRY_CODE":"US","ECCENTRICITY":"0.00009540","APOAPSIS":"535.346","DECAY_DATE":null,"PERIOD":"95.333","OBJECT_TYPE":"PAYLOAD","OBJECT_ID":"2020-006F","RA_OF_ASC_NODE":"351.3581","EPHEMERIS_TYPE":"0","INCLINATION":"53.0560","MEAN_MOTION":"15.10496568","ELEMENT_SET_NO":"999","REF_FRAME":"TEME","GP_ID":"210514201","MEAN_ANOMALY":"248.4117","LAUNCH_DATE":"2020-01-29","OBJECT_NAME":"STARLINK-1135","REV_AT_EPOCH":"14083","PERIAPSIS":"534.027","ARG_OF_PERICENTER":"111.6976","EPOCH":"2022-08-19T11:16:12.657216","SITE":"AFETR","FILE":"3540406","SEMIMAJOR_AXIS":"6912.822","MEAN_MOTION_DDOT":"0.0000000000000","MEAN_MOTION_DOT":"0.00014809","CLASSIFICATION_TYPE":"U","CENTER_NAME":"EARTH"}];
